CCSDS_OMM_VERS = 2.0
CREATION_DATE  = 
ORIGINATOR     = 

OBJECT_NAME    = SL-16 R/B
OBJECT_ID      = 1996-051B
CENTER_NAME    = EARTH
REF_FRAME      = TEME
TIME_SYSTEM    = UTC
MEAN_ELEMENT_THEORY = SGP/SGP4

EPOCH          = 2025-11-12T07:38:25.593792
MEAN_MOTION    = 14.12392997
ECCENTRICITY   = .00180978
INCLINATION    = 70.7603
RA_OF_ASC_NODE = 63.6728
ARG_OF_PERICENTER = 299.7427
MEAN_ANOMALY   = 60.1891

EPHEMERIS_TYPE = 0
CLASSIFICATION_TYPE = U
NORAD_CAT_ID   = 24298
ELEMENT_SET_NO = 999
REV_AT_EPOCH   = 50507
BSTAR          = .46057155E-4
MEAN_MOTION_DOT = .36E-6
MEAN_MOTION_DDOT = 0

CCSDS_OMM_VERS = 2.0
CREATION_DATE  = 
ORIGINATOR     = 

OBJECT_NAME    = ORBVIEW 2 (SEASTAR)
OBJECT_ID      = 1997-037A
CENTER_NAME    = EARTH
REF_FRAME      = TEME
TIME_SYSTEM    = UTC
MEAN_ELEMENT_THEORY = SGP/SGP4

EPOCH          = 2025-11-12T07:32:17.326752
MEAN_MOTION    = 14.35382645
ECCENTRICITY   = .00030084
INCLINATION    = 98.8447
RA_OF_ASC_NODE = 112.6261
ARG_OF_PERICENTER = 60.8134
MEAN_ANOMALY   = 299.3352

EPHEMERIS_TYPE = 0
CLASSIFICATION_TYPE = U
NORAD_CAT_ID   = 24883
ELEMENT_SET_NO = 999
REV_AT_EPOCH   = 49163
BSTAR          = .30051251E-3
MEAN_MOTION_DOT = .816E-5
MEAN_MOTION_DDOT = 0

CCSDS_OMM_VERS = 2.0
CREATION_DATE  = 
ORIGINATOR     = 

OBJECT_NAME    = SL-16 R/B
OBJECT_ID      = 1998-043G
CENTER_NAME    = EARTH
REF_FRAME      = TEME
TIME_SYSTEM    = UTC
MEAN_ELEMENT_THEORY = SGP/SGP4

EPOCH          = 2025-11-12T06:38:25.235808
MEAN_MOTION    = 14.26014277
ECCENTRICITY   = .00098808
INCLINATION    = 98.8075
RA_OF_ASC_NODE = 263.9322
ARG_OF_PERICENTER = 1.5710
MEAN_ANOMALY   = 358.5499

EPHEMERIS_TYPE = 0
CLASSIFICATION_TYPE = U
NORAD_CAT_ID   = 25400
ELEMENT_SET_NO = 999
REV_AT_EPOCH   = 42225
BSTAR          = .12512541E-3
MEAN_MOTION_DOT = .254E-5
MEAN_MOTION_DDOT = 0

CCSDS_OMM_VERS = 2.0
CREATION_DATE  = 
ORIGINATOR     = 

OBJECT_NAME    = SL-16 R/B
OBJECT_ID      = 1998-045B
CENTER_NAME    = EARTH
REF_FRAME      = TEME
TIME_SYSTEM    = UTC
MEAN_ELEMENT_THEORY = SGP/SGP4

EPOCH          = 2025-11-12T07:42:52.244928
MEAN_MOTION    = 14.16169376
ECCENTRICITY   = .0008667
INCLINATION    = 71.0121
RA_OF_ASC_NODE = 68.3926
ARG_OF_PERICENTER = 219.3471
MEAN_ANOMALY   = 140.7024

EPHEMERIS_TYPE = 0
CLASSIFICATION_TYPE = U
NORAD_CAT_ID   = 25407
ELEMENT_SET_NO = 999
REV_AT_EPOCH   = 41048
BSTAR          = -.3509029E-5
MEAN_MOTION_DOT = -.55E-6
MEAN_MOTION_DDOT = 0

CCSDS_OMM_VERS = 2.0
CREATION_DATE  = 
ORIGINATOR     = 

OBJECT_NAME    = ISS (ZARYA)
OBJECT_ID      = 1998-067A
CENTER_NAME    = EARTH
REF_FRAME      = TEME
TIME_SYSTEM    = UTC
MEAN_ELEMENT_THEORY = SGP/SGP4

EPOCH          = 2025-11-12T05:24:49.657536
MEAN_MOTION    = 15.49560899
ECCENTRICITY   = .00041322
INCLINATION    = 51.6334
RA_OF_ASC_NODE = 293.5281
ARG_OF_PERICENTER = 61.4658
MEAN_ANOMALY   = 298.6746

EPHEMERIS_TYPE = 0
CLASSIFICATION_TYPE = U
NORAD_CAT_ID   = 25544
ELEMENT_SET_NO = 999
REV_AT_EPOCH   = 53812
BSTAR          = .36008987E-3
MEAN_MOTION_DOT = .19835E-3
MEAN_MOTION_DDOT = 0

CCSDS_OMM_VERS = 2.0
CREATION_DATE  = 
ORIGINATOR     = 

OBJECT_NAME    = CZ-4B R/B
OBJECT_ID      = 1999-025C
CENTER_NAME    = EARTH
REF_FRAME      = TEME
TIME_SYSTEM    = UTC
MEAN_ELEMENT_THEORY = SGP/SGP4

EPOCH          = 2025-11-12T03:07:46.762176
MEAN_MOTION    = 14.18231757
ECCENTRICITY   = .00364287
INCLINATION    = 98.6815
RA_OF_ASC_NODE = 358.0880
ARG_OF_PERICENTER = 324.3859
MEAN_ANOMALY   = 95.7427

EPHEMERIS_TYPE = 0
CLASSIFICATION_TYPE = U
NORAD_CAT_ID   = 25732
ELEMENT_SET_NO = 999
REV_AT_EPOCH   = 37150
BSTAR          = .78304172E-4
MEAN_MOTION_DOT = .119E-5
MEAN_MOTION_DDOT = 0

CCSDS_OMM_VERS = 2.0
CREATION_DATE  = 
ORIGINATOR     = 

OBJECT_NAME    = OKEAN-O
OBJECT_ID      = 1999-039A
CENTER_NAME    = EARTH
REF_FRAME      = TEME
TIME_SYSTEM    = UTC
MEAN_ELEMENT_THEORY = SGP/SGP4

EPOCH          = 2025-11-12T03:58:10.353504
MEAN_MOTION    = 14.80081818
ECCENTRICITY   = .00014374
INCLINATION    = 97.9647
RA_OF_ASC_NODE = 12.1258
ARG_OF_PERICENTER = 67.4616
MEAN_ANOMALY   = 292.6747

EPHEMERIS_TYPE = 0
CLASSIFICATION_TYPE = U
NORAD_CAT_ID   = 25860
ELEMENT_SET_NO = 999
REV_AT_EPOCH   = 41700
BSTAR          = .16119394E-3
MEAN_MOTION_DOT = .1169E-4
MEAN_MOTION_DDOT = 0

CCSDS_OMM_VERS = 2.0
CREATION_DATE  = 
ORIGINATOR     = 

OBJECT_NAME    = SL-16 R/B
OBJECT_ID      = 1999-039B
CENTER_NAME    = EARTH
REF_FRAME      = TEME
TIME_SYSTEM    = UTC
MEAN_ELEMENT_THEORY = SGP/SGP4

EPOCH          = 2025-11-12T02:56:18.559392
MEAN_MOTION    = 14.81518060
ECCENTRICITY   = .00134871
INCLINATION    = 98.0170
RA_OF_ASC_NODE = 10.2652
ARG_OF_PERICENTER = 279.9310
MEAN_ANOMALY   = 80.0380

EPHEMERIS_TYPE = 0
CLASSIFICATION_TYPE = U
NORAD_CAT_ID   = 25861
ELEMENT_SET_NO = 999
REV_AT_EPOCH   = 41945
BSTAR          = .13119128E-3
MEAN_MOTION_DOT = .976E-5
MEAN_MOTION_DDOT = 0

CCSDS_OMM_VERS = 2.0
CREATION_DATE  = 
ORIGINATOR     = 

OBJECT_NAME    = DELTA 2 R/B
OBJECT_ID      = 1999-041E
CENTER_NAME    = EARTH
REF_FRAME      = TEME
TIME_SYSTEM    = UTC
MEAN_ELEMENT_THEORY = SGP/SGP4

EPOCH          = 2025-11-12T06:18:26.982720
MEAN_MOTION    = 14.11292144
ECCENTRICITY   = .05048278
INCLINATION    = 51.7637
RA_OF_ASC_NODE = 50.0924
ARG_OF_PERICENTER = 1.9591
MEAN_ANOMALY   = 358.3168

EPHEMERIS_TYPE = 0
CLASSIFICATION_TYPE = U
NORAD_CAT_ID   = 25876
ELEMENT_SET_NO = 999
REV_AT_EPOCH   = 34644
BSTAR          = .31310388E-3
MEAN_MOTION_DOT = .1703E-4
MEAN_MOTION_DDOT = 0

CCSDS_OMM_VERS = 2.0
CREATION_DATE  = 
ORIGINATOR     = 

OBJECT_NAME    = HELIOS 1B
OBJECT_ID      = 1999-064A
CENTER_NAME    = EARTH
REF_FRAME      = TEME
TIME_SYSTEM    = UTC
MEAN_ELEMENT_THEORY = SGP/SGP4

EPOCH          = 2025-11-12T06:10:51.164832
MEAN_MOTION    = 14.87094233
ECCENTRICITY   = .00025916
INCLINATION    = 98.1752
RA_OF_ASC_NODE = 210.0229
ARG_OF_PERICENTER = 84.2935
MEAN_ANOMALY   = 275.8575

EPHEMERIS_TYPE = 0
CLASSIFICATION_TYPE = U
NORAD_CAT_ID   = 25977
ELEMENT_SET_NO = 999
REV_AT_EPOCH   = 66780
BSTAR          = .56315116E-3
MEAN_MOTION_DOT = .4999E-4
MEAN_MOTION_DDOT = 0

CCSDS_OMM_VERS = 2.0
CREATION_DATE  = 
ORIGINATOR     = 

OBJECT_NAME    = TERRA
OBJECT_ID      = 1999-068A
CENTER_NAME    = EARTH
REF_FRAME      = TEME
TIME_SYSTEM    = UTC
MEAN_ELEMENT_THEORY = SGP/SGP4

EPOCH          = 2025-11-12T07:48:28.256256
MEAN_MOTION    = 14.60900415
ECCENTRICITY   = .00023287
INCLINATION    = 97.9792
RA_OF_ASC_NODE = 9.1182
ARG_OF_PERICENTER = 163.0118
MEAN_ANOMALY   = 264.1973

EPHEMERIS_TYPE = 0
CLASSIFICATION_TYPE = U
NORAD_CAT_ID   = 25994
ELEMENT_SET_NO = 999
REV_AT_EPOCH   = 37794
BSTAR          = .26308999E-3
MEAN_MOTION_DOT = .1243E-4
MEAN_MOTION_DDOT = 0

CCSDS_OMM_VERS = 2.0
CREATION_DATE  = 
ORIGINATOR     = 

OBJECT_NAME    = SL-16 R/B
OBJECT_ID      = 2000-006B
CENTER_NAME    = EARTH
REF_FRAME      = TEME
TIME_SYSTEM    = UTC
MEAN_ELEMENT_THEORY = SGP/SGP4

EPOCH          = 2025-11-12T07:21:16.835904
MEAN_MOTION    = 14.15802528
ECCENTRICITY   = .00168844
INCLINATION    = 71.0036
RA_OF_ASC_NODE = 344.6495
ARG_OF_PERICENTER = 351.5804
MEAN_ANOMALY   = 8.5033

EPHEMERIS_TYPE = 0
CLASSIFICATION_TYPE = U
NORAD_CAT_ID   = 26070
ELEMENT_SET_NO = 999
REV_AT_EPOCH   = 33194
BSTAR          = -.3382586E-5
MEAN_MOTION_DOT = -.54E-6
MEAN_MOTION_DDOT = 0

