SL-16 R/B               
1 24298U 96051B   25316.31835178  .00000036  00000+0  46057-4 0  9993
2 24298  70.7603  63.6728 0018097 299.7427  60.1891 14.12392997505076
ORBVIEW 2 (SEASTAR)     
1 24883U 97037A   25316.31408943  .00000816  00000+0  30051-3 0  9996
2 24883  98.8447 112.6261 0003008  60.8134 299.3352 14.35382645491636
SL-16 R/B               
1 25400U 98043G   25316.27668097  .00000254  00000+0  12513-3 0  9992
2 25400  98.8075 263.9322 0009880   1.5710 358.5499 14.26014277422258
SL-16 R/B               
1 25407U 98045B   25316.32143802 -.00000055  00000+0 -35090-5 0  9997
2 25407  71.0121  68.3926 0008667 219.3471 140.7024 14.16169376410489
ISS (ZARYA)             
1 25544U 98067A   25316.22557474  .00019835  00000+0  36009-3 0  9999
2 25544  51.6334 293.5281 0004132  61.4658 298.6746 15.49560899538121
CZ-4B R/B               
1 25732U 99025C   25316.13040234  .00000119  00000+0  78304-4 0  9994
2 25732  98.6815 358.0880 0036428 324.3859  95.7427 14.18231757371506
OKEAN-O                 
1 25860U 99039A   25316.16539761  .00001169  00000+0  16119-3 0  9993
2 25860  97.9647  12.1258 0001437  67.4616 292.6747 14.80081818417007
SL-16 R/B               
1 25861U 99039B   25316.12243703  .00000976  00000+0  13119-3 0  9990
2 25861  98.0170  10.2652 0013487 279.9310  80.0380 14.81518060419455
DELTA 2 R/B             
1 25876U 99041E   25316.26281230  .00001703  00000+0  31310-3 0  9993
2 25876  51.7637  50.0924 0504827   1.9591 358.3168 14.11292144346444
HELIOS 1B               
1 25977U 99064A   25316.25753663  .00004999  00000+0  56315-3 0  9995
2 25977  98.1752 210.0229 0002591  84.2935 275.8575 14.87094233667805
TERRA                   
1 25994U 99068A   25316.32532704  .00001243  00000+0  26309-3 0  9996
2 25994  97.9792   9.1182 0002328 163.0118 264.1973 14.60900415377942
SL-16 R/B               
1 26070U 00006B   25316.30644486 -.00000054  00000+0 -33826-5 0  9990
2 26070  71.0036 344.6495 0016884 351.5804   8.5033 14.15802528331947
